[{"OBJECT_NAME":"GPS BIIR-2  (PRN 13)","OBJECT_ID":"1997-035A","EPOCH":"2026-03-05T11:55:45.689376","MEAN_MOTION":2.00563987,"ECCENTRICITY":0.0097977,"INCLINATION":55.936,"RA_OF_ASC_NODE":102.6283,"ARG_OF_PERICENTER":56.2567,"MEAN_ANOMALY":304.7488,"EPHEMERIS_TYPE":0,"CLASSIFICATION_TYPE":"U","NORAD_CAT_ID":24876,"ELEMENT_SET_NO":999,"REV_AT_EPOCH":20987,"BSTAR":0,"MEAN_MOTION_DOT":9.0e-8,"MEAN_MOTION_DDOT":0},{"OBJECT_NAME":"GPS BIIR-5  (PRN 22)","OBJECT_ID":"2000-040A","EPOCH":"2026-03-05T19:51:28.632672","MEAN_MOTION":2.00568964,"ECCENTRICITY":0.0122665,"INCLINATION":54.8752,"RA_OF_ASC_NODE":219.2651,"ARG_OF_PERICENTER":302.5335,"MEAN_ANOMALY":230.2027,"EPHEMERIS_TYPE":0,"CLASSIFICATION_TYPE":"U","NORAD_CAT_ID":26407,"ELEMENT_SET_NO":999,"REV_AT_EPOCH":18787,"BSTAR":0,"MEAN_MOTION_DOT":1.4e-7,"MEAN_MOTION_DDOT":0},{"OBJECT_NAME":"GPS BIIR-8  (PRN 16)","OBJECT_ID":"2003-005A","EPOCH":"2026-03-05T09:57:48.106368","MEAN_MOTION":2.00566237,"ECCENTRICITY":0.0148737,"INCLINATION":54.9071,"RA_OF_ASC_NODE":219.0894,"ARG_OF_PERICENTER":52.7243,"MEAN_ANOMALY":318.2187,"EPHEMERIS_TYPE":0,"CLASSIFICATION_TYPE":"U","NORAD_CAT_ID":27663,"ELEMENT_SET_NO":999,"REV_AT_EPOCH":16923,"BSTAR":0,"MEAN_MOTION_DOT":9.0e-8,"MEAN_MOTION_DDOT":0},{"OBJECT_NAME":"GPS BIIR-11 (PRN 19)","OBJECT_ID":"2004-009A","EPOCH":"2026-03-05T08:25:27.111072","MEAN_MOTION":2.00558092,"ECCENTRICITY":0.0111001,"INCLINATION":54.9151,"RA_OF_ASC_NODE":279.8814,"ARG_OF_PERICENTER":169.0892,"MEAN_ANOMALY":311.4248,"EPHEMERIS_TYPE":0,"CLASSIFICATION_TYPE":"U","NORAD_CAT_ID":28190,"ELEMENT_SET_NO":999,"REV_AT_EPOCH":16086,"BSTAR":0,"MEAN_MOTION_DOT":-2.3e-7,"MEAN_MOTION_DDOT":0},{"OBJECT_NAME":"GPS BIIR-13 (PRN 02)","OBJECT_ID":"2004-045A","EPOCH":"2026-03-05T08:13:28.498944","MEAN_MOTION":2.00573478,"ECCENTRICITY":0.0170827,"INCLINATION":55.1942,"RA_OF_ASC_NODE":329.0814,"ARG_OF_PERICENTER":312.8671,"MEAN_ANOMALY":225.0992,"EPHEMERIS_TYPE":0,"CLASSIFICATION_TYPE":"U","NORAD_CAT_ID":28474,"ELEMENT_SET_NO":999,"REV_AT_EPOCH":15634,"BSTAR":0,"MEAN_MOTION_DOT":-9.4e-7,"MEAN_MOTION_DDOT":0},{"OBJECT_NAME":"GPS BIIRM-1 (PRN 17)","OBJECT_ID":"2005-038A","EPOCH":"2026-03-05T15:49:50.067264","MEAN_MOTION":2.00572953,"ECCENTRICITY":0.0128771,"INCLINATION":54.962,"RA_OF_ASC_NODE":277.3543,"ARG_OF_PERICENTER":295.3628,"MEAN_ANOMALY":71.8248,"EPHEMERIS_TYPE":0,"CLASSIFICATION_TYPE":"U","NORAD_CAT_ID":28874,"ELEMENT_SET_NO":999,"REV_AT_EPOCH":14976,"BSTAR":0,"MEAN_MOTION_DOT":-2.0e-7,"MEAN_MOTION_DDOT":0},{"OBJECT_NAME":"GPS BIIRM-2 (PRN 31)","OBJECT_ID":"2006-042A","EPOCH":"2026-03-05T07:26:29.074272","MEAN_MOTION":2.00575327,"ECCENTRICITY":0.0106713,"INCLINATION":54.6981,"RA_OF_ASC_NODE":155.4642,"ARG_OF_PERICENTER":52.8923,"MEAN_ANOMALY":318.897,"EPHEMERIS_TYPE":0,"CLASSIFICATION_TYPE":"U","NORAD_CAT_ID":29486,"ELEMENT_SET_NO":999,"REV_AT_EPOCH":14231,"BSTAR":0,"MEAN_MOTION_DOT":9.0e-8,"MEAN_MOTION_DDOT":0},{"OBJECT_NAME":"GPS BIIRM-3 (PRN 12)","OBJECT_ID":"2006-052A","EPOCH":"2026-03-05T05:03:51.163776","MEAN_MOTION":2.0055171,"ECCENTRICITY":0.0087858,"INCLINATION":54.9569,"RA_OF_ASC_NODE":218.1252,"ARG_OF_PERICENTER":89.3737,"MEAN_ANOMALY":271.5836,"EPHEMERIS_TYPE":0,"CLASSIFICATION_TYPE":"U","NORAD_CAT_ID":29601,"ELEMENT_SET_NO":999,"REV_AT_EPOCH":14132,"BSTAR":0,"MEAN_MOTION_DOT":7.0e-8,"MEAN_MOTION_DDOT":0},{"OBJECT_NAME":"GPS BIIRM-4 (PRN 15)","OBJECT_ID":"2007-047A","EPOCH":"2026-03-05T00:27:38.494656","MEAN_MOTION":2.00560713,"ECCENTRICITY":0.01636084,"INCLINATION":54.0162,"RA_OF_ASC_NODE":84.358,"ARG_OF_PERICENTER":85.964,"MEAN_ANOMALY":275.961,"EPHEMERIS_TYPE":0,"CLASSIFICATION_TYPE":"U","NORAD_CAT_ID":32260,"ELEMENT_SET_NO":999,"REV_AT_EPOCH":13472,"BSTAR":0,"MEAN_MOTION_DOT":-8.0e-8,"MEAN_MOTION_DDOT":0},{"OBJECT_NAME":"GPS BIIRM-5 (PRN 29)","OBJECT_ID":"2007-062A","EPOCH":"2026-03-05T08:05:38.584032","MEAN_MOTION":2.00553612,"ECCENTRICITY":0.0032949,"INCLINATION":55.1141,"RA_OF_ASC_NODE":278.326,"ARG_OF_PERICENTER":160.6805,"MEAN_ANOMALY":197.0086,"EPHEMERIS_TYPE":0,"CLASSIFICATION_TYPE":"U","NORAD_CAT_ID":32384,"ELEMENT_SET_NO":999,"REV_AT_EPOCH":13342,"BSTAR":0,"MEAN_MOTION_DOT":-2.1e-7,"MEAN_MOTION_DDOT":0},{"OBJECT_NAME":"GPS BIIRM-6 (PRN 07)","OBJECT_ID":"2008-012A","EPOCH":"2026-03-05T10:27:51.177600","MEAN_MOTION":2.00569259,"ECCENTRICITY":0.0207038,"INCLINATION":54.4824,"RA_OF_ASC_NODE":154.071,"ARG_OF_PERICENTER":246.204,"MEAN_ANOMALY":111.6495,"EPHEMERIS_TYPE":0,"CLASSIFICATION_TYPE":"U","NORAD_CAT_ID":32711,"ELEMENT_SET_NO":999,"REV_AT_EPOCH":13167,"BSTAR":0,"MEAN_MOTION_DOT":9.0e-8,"MEAN_MOTION_DDOT":0},{"OBJECT_NAME":"GPS BIIRM-8 (PRN 05)","OBJECT_ID":"2009-043A","EPOCH":"2026-03-04T22:17:35.308032","MEAN_MOTION":2.00560419,"ECCENTRICITY":0.00517137,"INCLINATION":56.1486,"RA_OF_ASC_NODE":31.547,"ARG_OF_PERICENTER":80.7039,"MEAN_ANOMALY":289.0108,"EPHEMERIS_TYPE":0,"CLASSIFICATION_TYPE":"U","NORAD_CAT_ID":35752,"ELEMENT_SET_NO":999,"REV_AT_EPOCH":12127,"BSTAR":0,"MEAN_MOTION_DOT":-8.5e-7,"MEAN_MOTION_DDOT":0},{"OBJECT_NAME":"GPS BIIF-1  (PRN 25)","OBJECT_ID":"2010-022A","EPOCH":"2026-03-05T18:06:10.553184","MEAN_MOTION":2.00557356,"ECCENTRICITY":0.0127339,"INCLINATION":54.2886,"RA_OF_ASC_NODE":212.7266,"ARG_OF_PERICENTER":65.886,"MEAN_ANOMALY":296.5732,"EPHEMERIS_TYPE":0,"CLASSIFICATION_TYPE":"U","NORAD_CAT_ID":36585,"ELEMENT_SET_NO":999,"REV_AT_EPOCH":11552,"BSTAR":0,"MEAN_MOTION_DOT":1.2e-7,"MEAN_MOTION_DDOT":0},{"OBJECT_NAME":"GPS BIIF-3  (PRN 24)","OBJECT_ID":"2012-053A","EPOCH":"2026-03-05T02:46:21.230400","MEAN_MOTION":2.00565848,"ECCENTRICITY":0.0176939,"INCLINATION":53.5659,"RA_OF_ASC_NODE":147.8643,"ARG_OF_PERICENTER":64.7787,"MEAN_ANOMALY":297.0919,"EPHEMERIS_TYPE":0,"CLASSIFICATION_TYPE":"U","NORAD_CAT_ID":38833,"ELEMENT_SET_NO":999,"REV_AT_EPOCH":9735,"BSTAR":0,"MEAN_MOTION_DOT":9.0e-8,"MEAN_MOTION_DDOT":0},{"OBJECT_NAME":"GPS BIIF-4  (PRN 27)","OBJECT_ID":"2013-023A","EPOCH":"2026-03-04T23:31:44.502816","MEAN_MOTION":2.00564217,"ECCENTRICITY":0.01416203,"INCLINATION":54.5857,"RA_OF_ASC_NODE":273.2171,"ARG_OF_PERICENTER":49.9246,"MEAN_ANOMALY":311.3385,"EPHEMERIS_TYPE":0,"CLASSIFICATION_TYPE":"U","NORAD_CAT_ID":39166,"ELEMENT_SET_NO":999,"REV_AT_EPOCH":9379,"BSTAR":0,"MEAN_MOTION_DOT":-1.6e-7,"MEAN_MOTION_DDOT":0},{"OBJECT_NAME":"GPS BIIF-5  (PRN 30)","OBJECT_ID":"2014-008A","EPOCH":"2026-03-05T11:27:37.396224","MEAN_MOTION":2.00553167,"ECCENTRICITY":0.0082337,"INCLINATION":53.6378,"RA_OF_ASC_NODE":153.5513,"ARG_OF_PERICENTER":228.3363,"MEAN_ANOMALY":130.9939,"EPHEMERIS_TYPE":0,"CLASSIFICATION_TYPE":"U","NORAD_CAT_ID":39533,"ELEMENT_SET_NO":999,"REV_AT_EPOCH":8760,"BSTAR":0,"MEAN_MOTION_DOT":8.0e-8,"MEAN_MOTION_DDOT":0},{"OBJECT_NAME":"GPS BIIF-6  (PRN 06)","OBJECT_ID":"2014-026A","EPOCH":"2026-03-05T18:07:59.442240","MEAN_MOTION":2.00568644,"ECCENTRICITY":0.0039852,"INCLINATION":56.5458,"RA_OF_ASC_NODE":335.547,"ARG_OF_PERICENTER":324.6035,"MEAN_ANOMALY":35.1692,"EPHEMERIS_TYPE":0,"CLASSIFICATION_TYPE":"U","NORAD_CAT_ID":39741,"ELEMENT_SET_NO":999,"REV_AT_EPOCH":8646,"BSTAR":0,"MEAN_MOTION_DOT":-9.9e-7,"MEAN_MOTION_DDOT":0}]
